[{"OBJECT_NAME":"STARLINK-32844","OBJECT_ID":"2025-018Q","EPOCH":"2026-03-09T22:07:10.014816","MEAN_MOTION":15.30210529,"ECCENTRICITY":0.00013263,"INCLINATION":53.1607,"RA_OF_ASC_NODE":308.5294,"ARG_OF_PERICENTER":146.5789,"MEAN_ANOMALY":213.5296,"EPHEMERIS_TYPE":0,"CLASSIFICATION_TYPE":"U","NORAD_CAT_ID":62820,"ELEMENT_SET_NO":999,"REV_AT_EPOCH":6320,"BSTAR":0.00087323671,"MEAN_MOTION_DOT":0.00025601,"MEAN_MOTION_DDOT":0},{"OBJECT_NAME":"COSMOS 2251 DEB","OBJECT_ID":"1993-036BPR","EPOCH":"2026-02-24T07:57:21.236256","MEAN_MOTION":15.23776337,"ECCENTRICITY":0.00166824,"INCLINATION":73.9787,"RA_OF_ASC_NODE":76.2838,"ARG_OF_PERICENTER":284.1156,"MEAN_ANOMALY":75.8189,"EPHEMERIS_TYPE":0,"CLASSIFICATION_TYPE":"U","NORAD_CAT_ID":37966,"ELEMENT_SET_NO":999,"REV_AT_EPOCH":86459,"BSTAR":0.0031189174,"MEAN_MOTION_DOT":0.00076101,"MEAN_MOTION_DDOT":0}]
